[{"OBJECT_NAME":"GPS BIIF-11","OBJECT_ID":"2015-062A","EPOCH":"2026-03-06T01:43:30.801792","MEAN_MOTION":2.00567113,"ECCENTRICITY":0.01114479,"INCLINATION":56.894,"RA_OF_ASC_NODE":34.7837,"ARG_OF_PERICENTER":231.5087,"MEAN_ANOMALY":127.4745,"EPHEMERIS_TYPE":0,"CLASSIFICATION_TYPE":"U","NORAD_CAT_ID":41019,"ELEMENT_SET_NO":999,"REV_AT_EPOCH":7576,"BSTAR":0,"MEAN_MOTION_DOT":-7.9e-7,"MEAN_MOTION_DDOT":0},{"OBJECT_NAME":"ELEKTRO-L 2","OBJECT_ID":"2015-074A","EPOCH":"2026-03-06T07:02:37.436640","MEAN_MOTION":1.00271019,"ECCENTRICITY":0.00033164,"INCLINATION":6.4359,"RA_OF_ASC_NODE":71.7901,"ARG_OF_PERICENTER":241.1196,"MEAN_ANOMALY":302.2488,"EPHEMERIS_TYPE":0,"CLASSIFICATION_TYPE":"U","NORAD_CAT_ID":41105,"ELEMENT_SET_NO":999,"REV_AT_EPOCH":3747,"BSTAR":0,"MEAN_MOTION_DOT":-1.2e-6,"MEAN_MOTION_DDOT":0},{"OBJECT_NAME":"GSAT0209 (GALILEO 12)","OBJECT_ID":"2015-079A","EPOCH":"2026-03-05T19:12:03.208896","MEAN_MOTION":1.70474567,"ECCENTRICITY":0.00047381,"INCLINATION":55.7602,"RA_OF_ASC_NODE":104.0969,"ARG_OF_PERICENTER":323.5937,"MEAN_ANOMALY":36.4535,"EPHEMERIS_TYPE":0,"CLASSIFICATION_TYPE":"U","NORAD_CAT_ID":41174,"ELEMENT_SET_NO":999,"REV_AT_EPOCH":6301,"BSTAR":0,"MEAN_MOTION_DOT":8.0e-8,"MEAN_MOTION_DDOT":0},{"OBJECT_NAME":"GSAT0208 (GALILEO 11)","OBJECT_ID":"2015-079B","EPOCH":"2026-03-03T02:05:47.447808","MEAN_MOTION":1.70474318,"ECCENTRICITY":0.00041639,"INCLINATION":55.7569,"RA_OF_ASC_NODE":104.1685,"ARG_OF_PERICENTER":323.7694,"MEAN_ANOMALY":36.289,"EPHEMERIS_TYPE":0,"CLASSIFICATION_TYPE":"U","NORAD_CAT_ID":41175,"ELEMENT_SET_NO":999,"REV_AT_EPOCH":6338,"BSTAR":0,"MEAN_MOTION_DOT":1.5e-7,"MEAN_MOTION_DDOT":0},{"OBJECT_NAME":"GPS BIIF-12","OBJECT_ID":"2016-007A","EPOCH":"2026-03-06T03:46:32.190528","MEAN_MOTION":2.0055671,"ECCENTRICITY":0.00954788,"INCLINATION":55.4568,"RA_OF_ASC_NODE":93.5431,"ARG_OF_PERICENTER":246.0454,"MEAN_ANOMALY":113.0115,"EPHEMERIS_TYPE":0,"CLASSIFICATION_TYPE":"U","NORAD_CAT_ID":41328,"ELEMENT_SET_NO":999,"REV_AT_EPOCH":7377,"BSTAR":0,"MEAN_MOTION_DOT":-4.0e-8,"MEAN_MOTION_DDOT":0},{"OBJECT_NAME":"GSAT0211 (GALILEO 14)","OBJECT_ID":"2016-030A","EPOCH":"2026-03-05T13:22:59.638944","MEAN_MOTION":1.70473873,"ECCENTRICITY":0.00035813,"INCLINATION":55.131,"RA_OF_ASC_NODE":224.5419,"ARG_OF_PERICENTER":25.3389,"MEAN_ANOMALY":334.6168,"EPHEMERIS_TYPE":0,"CLASSIFICATION_TYPE":"U","NORAD_CAT_ID":41549,"ELEMENT_SET_NO":999,"REV_AT_EPOCH":6090,"BSTAR":0,"MEAN_MOTION_DOT":1.6e-7,"MEAN_MOTION_DDOT":0},{"OBJECT_NAME":"GSAT0210 (GALILEO 13)","OBJECT_ID":"2016-030B","EPOCH":"2026-03-05T19:33:28.414080","MEAN_MOTION":1.70473987,"ECCENTRICITY":0.00012003,"INCLINATION":55.1283,"RA_OF_ASC_NODE":224.5329,"ARG_OF_PERICENTER":195.2538,"MEAN_ANOMALY":164.6814,"EPHEMERIS_TYPE":0,"CLASSIFICATION_TYPE":"U","NORAD_CAT_ID":41550,"ELEMENT_SET_NO":999,"REV_AT_EPOCH":6090,"BSTAR":0,"MEAN_MOTION_DOT":1.8e-7,"MEAN_MOTION_DDOT":0},{"OBJECT_NAME":"INSAT-3DR","OBJECT_ID":"2016-054A","EPOCH":"2026-03-06T04:02:32.205120","MEAN_MOTION":1.00272637,"ECCENTRICITY":0.00131101,"INCLINATION":0.0518,"RA_OF_ASC_NODE":95.4837,"ARG_OF_PERICENTER":186.5629,"MEAN_ANOMALY":16.4609,"EPHEMERIS_TYPE":0,"CLASSIFICATION_TYPE":"U","NORAD_CAT_ID":41752,"ELEMENT_SET_NO":999,"REV_AT_EPOCH":3478,"BSTAR":0,"MEAN_MOTION_DOT":-8.2e-7,"MEAN_MOTION_DDOT":0},{"OBJECT_NAME":"GSAT0207 (GALILEO 15)","OBJECT_ID":"2016-069A","EPOCH":"2026-02-28T05:27:34.324704","MEAN_MOTION":1.70474383,"ECCENTRICITY":0.00050316,"INCLINATION":55.4267,"RA_OF_ASC_NODE":104.1007,"ARG_OF_PERICENTER":309.1503,"MEAN_ANOMALY":50.8842,"EPHEMERIS_TYPE":0,"CLASSIFICATION_TYPE":"U","NORAD_CAT_ID":41859,"ELEMENT_SET_NO":999,"REV_AT_EPOCH":5754,"BSTAR":0,"MEAN_MOTION_DOT":8.0e-8,"MEAN_MOTION_DDOT":0},{"OBJECT_NAME":"GSAT0212 (GALILEO 16)","OBJECT_ID":"2016-069B","EPOCH":"2026-03-03T00:20:06.105120","MEAN_MOTION":1.70474657,"ECCENTRICITY":0.0003622,"INCLINATION":55.4261,"RA_OF_ASC_NODE":104.0186,"ARG_OF_PERICENTER":335.7588,"MEAN_ANOMALY":24.3106,"EPHEMERIS_TYPE":0,"CLASSIFICATION_TYPE":"U","NORAD_CAT_ID":41860,"ELEMENT_SET_NO":999,"REV_AT_EPOCH":5784,"BSTAR":0,"MEAN_MOTION_DOT":1.4e-7,"MEAN_MOTION_DDOT":0},{"OBJECT_NAME":"GSAT0213 (GALILEO 17)","OBJECT_ID":"2016-069C","EPOCH":"2026-03-05T17:27:54.505152","MEAN_MOTION":1.7047497,"ECCENTRICITY":0.00052366,"INCLINATION":55.4302,"RA_OF_ASC_NODE":103.9512,"ARG_OF_PERICENTER":292.7393,"MEAN_ANOMALY":67.2847,"EPHEMERIS_TYPE":0,"CLASSIFICATION_TYPE":"U","NORAD_CAT_ID":41861,"ELEMENT_SET_NO":999,"REV_AT_EPOCH":5775,"BSTAR":0,"MEAN_MOTION_DOT":8.0e-8,"MEAN_MOTION_DDOT":0},{"OBJECT_NAME":"GSAT0214 (GALILEO 18)","OBJECT_ID":"2016-069D","EPOCH":"2026-02-28T00:11:27.536640","MEAN_MOTION":1.70474701,"ECCENTRICITY":0.00041329,"INCLINATION":55.425,"RA_OF_ASC_NODE":104.1026,"ARG_OF_PERICENTER":296.1582,"MEAN_ANOMALY":63.8775,"EPHEMERIS_TYPE":0,"CLASSIFICATION_TYPE":"U","NORAD_CAT_ID":41862,"ELEMENT_SET_NO":999,"REV_AT_EPOCH":5778,"BSTAR":0,"MEAN_MOTION_DOT":7.0e-8,"MEAN_MOTION_DDOT":0},{"OBJECT_NAME":"GOES 16","OBJECT_ID":"2016-071A","EPOCH":"2026-03-06T04:54:12.250080","MEAN_MOTION":1.00271914,"ECCENTRICITY":0.0002414,"INCLINATION":0.1424,"RA_OF_ASC_NODE":89.5183,"ARG_OF_PERICENTER":221.6288,"MEAN_ANOMALY":181.6256,"EPHEMERIS_TYPE":0,"CLASSIFICATION_TYPE":"U","NORAD_CAT_ID":41866,"ELEMENT_SET_NO":999,"REV_AT_EPOCH":3407,"BSTAR":0,"MEAN_MOTION_DOT":-9.6e-7,"MEAN_MOTION_DDOT":0},{"OBJECT_NAME":"GSAT-17","OBJECT_ID":"2017-040B","EPOCH":"2026-03-05T07:35:32.138016","MEAN_MOTION":1.0026984,"ECCENTRICITY":0.0004948,"INCLINATION":0.0381,"RA_OF_ASC_NODE":296.1388,"ARG_OF_PERICENTER":351.8585,"MEAN_ANOMALY":82.4276,"EPHEMERIS_TYPE":0,"CLASSIFICATION_TYPE":"U","NORAD_CAT_ID":42815,"ELEMENT_SET_NO":999,"REV_AT_EPOCH":3174,"BSTAR":0,"MEAN_MOTION_DOT":-2.66e-6,"MEAN_MOTION_DDOT":0},{"OBJECT_NAME":"GSAT0215 (GALILEO 19)","OBJECT_ID":"2017-079A","EPOCH":"2026-03-03T10:20:26.274624","MEAN_MOTION":1.70474475,"ECCENTRICITY":6.318e-5,"INCLINATION":55.108,"RA_OF_ASC_NODE":224.4135,"ARG_OF_PERICENTER":13.1955,"MEAN_ANOMALY":346.7446,"EPHEMERIS_TYPE":0,"CLASSIFICATION_TYPE":"U","NORAD_CAT_ID":43055,"ELEMENT_SET_NO":999,"REV_AT_EPOCH":5118,"BSTAR":0,"MEAN_MOTION_DOT":1.0e-7,"MEAN_MOTION_DDOT":0},{"OBJECT_NAME":"GSAT0216 (GALILEO 20)","OBJECT_ID":"2017-079B","EPOCH":"2026-03-04T21:29:08.868192","MEAN_MOTION":1.70474648,"ECCENTRICITY":0.0001703,"INCLINATION":55.108,"RA_OF_ASC_NODE":224.3734,"ARG_OF_PERICENTER":320.6652,"MEAN_ANOMALY":39.2594,"EPHEMERIS_TYPE":0,"CLASSIFICATION_TYPE":"U","NORAD_CAT_ID":43056,"ELEMENT_SET_NO":999,"REV_AT_EPOCH":5122,"BSTAR":0,"MEAN_MOTION_DOT":1.3e-7,"MEAN_MOTION_DDOT":0},{"OBJECT_NAME":"GSAT0217 (GALILEO 21)","OBJECT_ID":"2017-079C","EPOCH":"2026-03-05T16:51:42.846336","MEAN_MOTION":1.70474572,"ECCENTRICITY":0.00020587,"INCLINATION":55.1077,"RA_OF_ASC_NODE":224.349,"ARG_OF_PERICENTER":354.7865,"MEAN_ANOMALY":5.1497,"EPHEMERIS_TYPE":0,"CLASSIFICATION_TYPE":"U","NORAD_CAT_ID":43057,"ELEMENT_SET_NO":999,"REV_AT_EPOCH":5122,"BSTAR":0,"MEAN_MOTION_DOT":1.7e-7,"MEAN_MOTION_DDOT":0}]
